{
    "links": {
        "self": "http://www.neowsapp.com/rest/v1/neo/3879188?api_key=iIulBulltgU6a56xZRHN4H3l9WmuAYTsLGpBGhQ2"
    },
    "id": "3879188",
    "neo_reference_id": "3879188",
    "name": "(2019 TM7)",
    "designation": "2019 TM7",
    "nasa_jpl_url": "http://ssd.jpl.nasa.gov/sbdb.cgi?sstr=3879188",
    "absolute_magnitude_h": 23.9,
    "estimated_diameter": {
        "kilometers": {
            "estimated_diameter_min": 0.04411182,
            "estimated_diameter_max": 0.0986370281
        },
        "meters": {
            "estimated_diameter_min": 44.1118199997,
            "estimated_diameter_max": 98.6370281305
        },
        "miles": {
            "estimated_diameter_min": 0.0274098057,
            "estimated_diameter_max": 0.0612901888
        },
        "feet": {
            "estimated_diameter_min": 144.7238235278,
            "estimated_diameter_max": 323.6123073718
        }
    },
    "is_potentially_hazardous_asteroid": false,
    "close_approach_data": [
        {
            "close_approach_date": "2019-10-18",
            "close_approach_date_full": "2019-Oct-18 14:44",
            "epoch_date_close_approach": 1571409840000,
            "relative_velocity": {
                "kilometers_per_second": "24.0522999704",
                "kilometers_per_hour": "86588.2798934242",
                "miles_per_hour": "53802.5898037779"
            },
            "miss_distance": {
                "astronomical": "0.0283562114",
                "lunar": "11.0305662346",
                "kilometers": "4242028.826709718",
                "miles": "2635874.4857933884"
            },
            "orbiting_body": "Earth"
        },
        {
            "close_approach_date": "2021-03-31",
            "close_approach_date_full": "2021-Mar-31 12:23",
            "epoch_date_close_approach": 1617193380000,
            "relative_velocity": {
                "kilometers_per_second": "4.9435939483",
                "kilometers_per_hour": "17796.9382138843",
                "miles_per_hour": "11058.325302955"
            },
            "miss_distance": {
                "astronomical": "1.9526804729",
                "lunar": "759.5927039581",
                "kilometers": "292116839.536432723",
                "miles": "181512987.2188806574"
            },
            "orbiting_body": "Juptr"
        }
    ],
    "orbital_data": {
        "orbit_id": "2",
        "orbit_determination_date": "2019-10-17 06:53:29",
        "first_observation_date": "2019-10-06",
        "last_observation_date": "2019-10-16",
        "data_arc_in_days": 10,
        "observations_used": 21,
        "orbit_uncertainty": "8",
        "minimum_orbit_intersection": ".0176747",
        "jupiter_tisserand_invariant": "3.595",
        "epoch_osculation": "2458766.5",
        "eccentricity": ".7376596299101069",
        "semi_major_axis": "1.860806405665553",
        "inclination": "8.408179191425717",
        "ascending_node_longitude": "32.58355853144279",
        "orbital_period": "927.1504543686405",
        "perihelion_distance": ".4881646411279449",
        "perihelion_argument": "94.50830375196725",
        "aphelion_distance": "3.233448170203161",
        "perihelion_time": "2458821.405039749038",
        "mean_anomaly": "338.6811145736713",
        "mean_motion": ".3882864947147638",
        "equinox": "J2000",
        "orbit_class": {
            "orbit_class_type": "APO",
            "orbit_class_description": "Near-Earth asteroid orbits which cross the Earth’s orbit similar to that of 1862 Apollo",
            "orbit_class_range": "a (semi-major axis) > 1.0 AU; q (perihelion) < 1.017 AU"
        }
    },
    "is_sentry_object": false
}